[{"OBJECT_NAME":"STARLINK-30239","OBJECT_ID":"2023-096B","EPOCH":"2026-03-09T22:00:01.999584","MEAN_MOTION":15.17291033,"ECCENTRICITY":0.00011539,"INCLINATION":42.9992,"RA_OF_ASC_NODE":221.2546,"ARG_OF_PERICENTER":297.0499,"MEAN_ANOMALY":275.4383,"EPHEMERIS_TYPE":0,"CLASSIFICATION_TYPE":"U","NORAD_CAT_ID":57291,"ELEMENT_SET_NO":999,"REV_AT_EPOCH":578,"BSTAR":0.0046931464,"MEAN_MOTION_DOT":0.00096291,"MEAN_MOTION_DDOT":0},{"OBJECT_NAME":"FENGYUN 1C DEB","OBJECT_ID":"1999-025BYB","EPOCH":"2026-03-09T05:05:13.521120","MEAN_MOTION":14.56393574,"ECCENTRICITY":0.02857078,"INCLINATION":98.2326,"RA_OF_ASC_NODE":339.505,"ARG_OF_PERICENTER":237.0918,"MEAN_ANOMALY":120.25,"EPHEMERIS_TYPE":0,"CLASSIFICATION_TYPE":"U","NORAD_CAT_ID":31536,"ELEMENT_SET_NO":999,"REV_AT_EPOCH":97515,"BSTAR":0.0011428862,"MEAN_MOTION_DOT":8.819e-5,"MEAN_MOTION_DDOT":0}]
